EUTELSAT 9B             
1 41310U 16005A   17057.54004866  .00000050  00000-0  00000+0 0  9998
2 41310   0.0408 124.3287 0005099 202.6676  32.9518  1.00272710  4048
SES-9                   
1 41380U 16013A   17057.26497904 -.00000357  00000-0  00000+0 0  9993
2 41380   0.0586 300.4112 0000843  69.6526 349.9175  1.00271681  3688
EUTELSAT 65 WEST A      
1 41382U 16014A   17057.74557523 -.00000288  00000-0  00000+0 0  9996
2 41382   0.0533 348.1697 0001658 347.6824  24.1201  1.00273354  3584
IRNSS-1F                
1 41384U 16015A   17058.21567708  .00000141  00000-0  00000+0 0  9995
2 41384   4.3857 267.6569 0019432 170.6108 189.1940  1.00265293  3634
BEIDOU IGSO 6           
1 41434U 16021A   17058.46628338 -.00000088  00000-0  10000-3 0  9998
2 41434  55.3968  73.6055 0028749 185.9468 158.9000  1.00292903  3429
IRNSS-1G                
1 41469U 16027A   17058.94779492 -.00000353  00000-0  00000+0 0  9993
2 41469   4.4584 268.9208 0002756  33.1861 326.5967  1.00268949  3143
JCSAT 2B                
1 41471U 16028A   17058.13565853 -.00000178  00000-0  00000+0 0  9997
2 41471   0.0162 129.0933 0001437 207.8196  23.0609  1.00270945  3026
THAICOM 8               
1 41552U 16031A   17057.71437251 -.00000133  00000-0  00000+0 0  9995
2 41552   0.0671  55.2878 0004761 303.2396 133.8792  1.00271378  2714
INTELSAT 31 (IS-31)     
1 41581U 16035A   17058.82554100 -.00000164  00000-0  00000+0 0  9991
2 41581   0.0252 227.4269 0002819 334.5542 157.9875  1.00272929  2655
BEIDOU G7               
1 41586U 16037A   17059.02998145 -.00000261  00000-0  00000+0 0  9990
2 41586   1.4155 313.3957 0002922 308.9844  50.8870  1.00275763  2746
ABS-2A                  
1 41588U 16038A   17058.35530061 -.00000096  00000-0  00000+0 0  9993
2 41588   0.0079 144.6684 0001179 118.9213  96.3773  1.00270216  2657
EUTELSAT 117 WEST B     
1 41589U 16038B   17058.88642053 -.00000024  00000-0  00000+0 0  9998
2 41589   0.0099  39.9731 0000452 315.6021   4.4050  1.00272491  2661
BRISAT                  
1 41591U 16039A   17058.14549428 -.00000210  00000-0  00000+0 0  9990
2 41591   0.0161 151.1584 0002152 188.8420  19.9911  1.00269477  2587
ECHOSTAR 18             
1 41592U 16039B   17058.73216296 -.00000295  00000-0  00000+0 0  9993
2 41592   0.0576 279.0154 0002259  58.0141  22.9407  1.00271267  2570
TIANTONG-1 1            
1 41725U 16048A   17059.19905794 -.00000329  00000-0  00000+0 0  9998
2 41725   4.7355 325.1899 0006193  19.8585 346.2573  1.00270850  2226
JCSAT-16                
1 41729U 16050A   17059.11060009 -.00000105  00000-0  00000+0 0  9990
2 41729   0.0078 110.6457 0001804 226.0786  23.2482  1.00272153  2024
INTELSAT 36 (IS-36)     
1 41747U 16053A   17058.37250650 -.00000037  00000-0  00000+0 0  9997
2 41747   0.0180  96.4158 0003115 253.9270   9.6315  1.00272235  1912
INTELSAT 33E (IS-33E)   
1 41748U 16053B   17058.39608180  .00000037  00000-0  00000+0 0  9994
2 41748   0.0226 124.2216 0001361 207.7674  28.0037  1.00269937  2153
INSAT-3DR               
1 41752U 16054A   17058.35703837 -.00000089  00000-0  00000+0 0  9999
2 41752   0.0728 262.7334 0008356  16.6713  80.4813  1.00271969  1753
GSAT-18                 
1 41793U 16060A   17058.35748318 -.00000089  00000-0  00000+0 0  9994
2 41793   0.0542 258.3982 0004910 190.5550 271.0830  1.00271901  1488
SKY MUSTER 2            
1 41794U 16060B   17059.15843959 -.00000256  00000-0  00000+0 0  9997
2 41794   0.0174 165.3384 0000763 168.7156  25.9422  1.00276571  1520
HIMAWARI-9              
1 41836U 16064A   17059.16959244 -.00000288  00000-0  00000+0 0  9999
2 41836   0.0132 174.1410 0000798 176.1003   9.7572  1.00270535  1251
SHIJIAN-17 (SJ-17)      
1 41838U 16065A   17057.96396074 -.00000095  00000-0  00000-0 0  9991
2 41838   0.9999  86.8727 0008113 335.8444 244.3389  1.00272178  1163
GOES 16                 
1 41866U 16071A   17058.81021284 -.00000195  00000-0  00000+0 0  9992
2 41866   0.0620 309.0047 0001652  58.5612 352.4169  1.00271458  1053
TIANLIAN 1-04           
1 41869U 16072A   17058.57052962 -.00000121  00000-0  00000+0 0  9995
2 41869   2.8817 290.6676 0004185 112.3281  36.9386  1.00273554  1258
FENGYUN 4A              
1 41882U 16077A   17059.00690701 -.00000311  00000-0  00000+0 0  9994
2 41882   0.2346 271.6165 0003078 195.6310 152.4495  1.00264040   929
ECHOSTAR 19             
1 41893U 16079A   17058.71028333 -.00000151  00000-0  00000+0 0  9993
2 41893   0.0420 112.7644 0002228 234.8989 328.6336  1.00271225   679
STAR ONE D1             
1 41904U 16082B   17059.15742378 -.00000224  00000-0  00000+0 0  9992
2 41904   0.0217 217.1118 0002080 170.0808 103.6322  1.00272727   730
TJS-2                   
1 41911U 17001A   17058.77548359 -.00000355  00000-0  00000+0 0  9997
2 41911   0.9089 280.0492 0002566 141.8551 122.4372  1.00266363   674
HISPASAT 36W-1          
1 41942U 17006A   17059.16911858 -.00000207  00000-0  00000+0 0  9994
2 41942   0.0615 269.0897 0001420  39.4680 244.4744  1.00269487   479
TELKOM 3S               
1 41944U 17007A   17058.93392833 -.00000321  00000-0  00000+0 0  9994
2 41944   0.0296  22.1358 0001547  89.5077 158.0933  1.00277101   159
INTELSAT 32E (IS-32E)   
1 41945U 17007B   17059.48260855 -.00000244  00000-0  00000+0 0  9998
2 41945   0.0745 274.6426 0000969  93.8681 290.7516  1.00275054   195
